start=new Date('2023-07-02T00:00:00.000Z').valueOf();
sats=[{"ELEMENT_SET_NO":"999","EPHEMERIS_TYPE":"0","RCS_SIZE":"LARGE","BSTAR":"0.00043130000000","REV_AT_EPOCH":"13300","MEAN_MOTION_DDOT":"0.0000000000000","MEAN_ELEMENT_THEORY":"SGP4","OBJECT_TYPE":"PAYLOAD","ARG_OF_PERICENTER":"83.8677","TIME_SYSTEM":"UTC","REF_FRAME":"TEME","OBJECT_ID":"2021-009BH","ECCENTRICITY":"0.00014750","NORAD_CAT_ID":"47603","EPOCH":"2023-07-01T01:36:43.640064","PERIAPSIS":"546.151","CENTER_NAME":"EARTH","FILE":"3946563","GP_ID":"234645851","DECAY_DATE":null,"OBJECT_NAME":"STARLINK-2008","APOAPSIS":"548.194","TLE_LINE2":"2 47603  53.0536 132.7819 0001475  83.8677 276.2480 15.06413537133002","RA_OF_ASC_NODE":"132.7819","INCLINATION":"53.0536","CLASSIFICATION_TYPE":"U","TLE_LINE1":"1 47603U 21009BH  23182.06717176  .00006151  00000-0  43130-3 0  9990","SEMIMAJOR_AXIS":"6925.307","PERIOD":"95.591","SITE":"AFETR","MEAN_ANOMALY":"276.2480","LAUNCH_DATE":"2021-02-04","MEAN_MOTION":"15.06413537","COUNTRY_CODE":"US","MEAN_MOTION_DOT":"0.00006151"},{"EPHEMERIS_TYPE":"0","ELEMENT_SET_NO":"999","RCS_SIZE":"LARGE","REV_AT_EPOCH":"13354","BSTAR":"-0.00010570000000","MEAN_MOTION_DDOT":"0.0000000000000","MEAN_ELEMENT_THEORY":"SGP4","ARG_OF_PERICENTER":"105.5781","OBJECT_TYPE":"PAYLOAD","TIME_SYSTEM":"UTC","OBJECT_ID":"2021-009BJ","ECCENTRICITY":"0.00011570","REF_FRAME":"TEME","NORAD_CAT_ID":"47604","PERIAPSIS":"546.430","EPOCH":"2023-07-01T19:01:02.069184","GP_ID":"234658652","FILE":"3947101","DECAY_DATE":null,"CENTER_NAME":"EARTH","OBJECT_NAME":"STARLINK-2021","TLE_LINE2":"2 47604  53.0546  99.5276 0001157 105.5781 254.5336 15.06394122133542","APOAPSIS":"548.033","RA_OF_ASC_NODE":"99.5276","INCLINATION":"53.0546","CLASSIFICATION_TYPE":"U","TLE_LINE1":"1 47604U 21009BJ  23182.79238506 -.00001855  00000-0 -10570-3 0  9996","SEMIMAJOR_AXIS":"6925.367","PERIOD":"95.593","SITE":"AFETR","MEAN_ANOMALY":"254.5336","MEAN_MOTION":"15.06394122","LAUNCH_DATE":"2021-02-04","COUNTRY_CODE":"US","MEAN_MOTION_DOT":"-0.00001855"},{"GP_ID":"234658650","DECAY_DATE":null,"FILE":"3947101","CENTER_NAME":"EARTH","PERIAPSIS":"545.761","EPOCH":"2023-07-01T19:06:20.315808","OBJECT_NAME":"STARLINK-2024","RA_OF_ASC_NODE":"99.5162","INCLINATION":"53.0559","TLE_LINE2":"2 47606  53.0559  99.5162 0002096  95.6742 264.4486 15.06400288133548","APOAPSIS":"548.664","SEMIMAJOR_AXIS":"6925.348","TLE_LINE1":"1 47606U 21009BL  23182.79606847 -.00005603  00000-0 -35748-3 0  9994","CLASSIFICATION_TYPE":"U","SITE":"AFETR","PERIOD":"95.592","MEAN_MOTION":"15.06400288","LAUNCH_DATE":"2021-02-04","MEAN_ANOMALY":"264.4486","MEAN_MOTION_DOT":"-0.00005603","COUNTRY_CODE":"US","EPHEMERIS_TYPE":"0","ELEMENT_SET_NO":"999","RCS_SIZE":"LARGE","MEAN_MOTION_DDOT":"0.0000000000000","REV_AT_EPOCH":"13354","BSTAR":"-0.00035748000000","MEAN_ELEMENT_THEORY":"SGP4","ARG_OF_PERICENTER":"95.6742","OBJECT_TYPE":"PAYLOAD","OBJECT_ID":"2021-009BL","ECCENTRICITY":"0.00020960","REF_FRAME":"TEME","TIME_SYSTEM":"UTC","NORAD_CAT_ID":"47606"},{"RCS_SIZE":"LARGE","EPHEMERIS_TYPE":"0","ELEMENT_SET_NO":"999","MEAN_ELEMENT_THEORY":"SGP4","REV_AT_EPOCH":"13346","BSTAR":"0.00123390000000","MEAN_MOTION_DDOT":"0.0000000000000","TIME_SYSTEM":"UTC","ECCENTRICITY":"0.00044510","OBJECT_ID":"2021-009BM","REF_FRAME":"TEME","ARG_OF_PERICENTER":"67.4587","OBJECT_TYPE":"PAYLOAD","NORAD_CAT_ID":"47607","PERIAPSIS":"532.612","EPOCH":"2023-07-01T04:40:09.474240","FILE":"3946831","GP_ID":"234651532","DECAY_DATE":null,"CENTER_NAME":"EARTH","TLE_LINE2":"2 47607  53.0556 101.0365 0004451  67.4587 292.6874 15.10167884133463","APOAPSIS":"538.767","RA_OF_ASC_NODE":"101.0365","INCLINATION":"53.0556","OBJECT_NAME":"STARLINK-2025","PERIOD":"95.354","SITE":"AFETR","CLASSIFICATION_TYPE":"U","SEMIMAJOR_AXIS":"6913.825","TLE_LINE1":"1 47607U 21009BM  23182.19455410  .00020138  00000-0  12339-2 0  9995","COUNTRY_CODE":"US","MEAN_MOTION_DOT":"0.00020138","MEAN_ANOMALY":"292.6874","MEAN_MOTION":"15.10167884","LAUNCH_DATE":"2021-02-04"},{"SITE":"AFETR","PERIOD":"95.592","SEMIMAJOR_AXIS":"6925.341","TLE_LINE1":"1 47620U 21012A   23182.32610491  .00001067  00000-0  90499-4 0  9996","CLASSIFICATION_TYPE":"U","MEAN_MOTION_DOT":"0.00001067","COUNTRY_CODE":"US","LAUNCH_DATE":"2021-02-16","MEAN_MOTION":"15.06402474","MEAN_ANOMALY":"286.4934","CENTER_NAME":"EARTH","DECAY_DATE":null,"GP_ID":"234648977","FILE":"3946719","EPOCH":"2023-07-01T07:49:35.464224","PERIAPSIS":"546.645","RA_OF_ASC_NODE":"161.6171","INCLINATION":"53.0535","APOAPSIS":"547.767","TLE_LINE2":"2 47620  53.0535 161.6171 0000810  73.6144 286.4934 15.06402474131407","OBJECT_NAME":"STARLINK-1528","REF_FRAME":"TEME","ECCENTRICITY":"0.00008100","OBJECT_ID":"2021-012A","TIME_SYSTEM":"UTC","OBJECT_TYPE":"PAYLOAD","ARG_OF_PERICENTER":"73.6144","NORAD_CAT_ID":"47620","RCS_SIZE":"LARGE","ELEMENT_SET_NO":"999","EPHEMERIS_TYPE":"0","MEAN_ELEMENT_THEORY":"SGP4","MEAN_MOTION_DDOT":"0.0000000000000","BSTAR":"0.00009049900000","REV_AT_EPOCH":"13140"},{"CENTER_NAME":"EARTH","FILE":"3946113","GP_ID":"234634036","DECAY_DATE":null,"EPOCH":"2023-06-30T15:43:35.188896","PERIAPSIS":"546.437","RA_OF_ASC_NODE":"164.6316","INCLINATION":"53.0531","APOAPSIS":"548.009","TLE_LINE2":"2 47621  53.0531 164.6316 0001135  87.0733 273.0386 15.06396791131308","OBJECT_NAME":"STARLINK-1609","SITE":"AFETR","PERIOD":"95.592","SEMIMAJOR_AXIS":"6925.358","TLE_LINE1":"1 47621U 21012B   23181.65526839  .00000895  00000-0  78987-4 0  9990","CLASSIFICATION_TYPE":"U","MEAN_MOTION_DOT":"0.00000895","COUNTRY_CODE":"US","LAUNCH_DATE":"2021-02-16","MEAN_MOTION":"15.06396791","MEAN_ANOMALY":"273.0386","RCS_SIZE":"LARGE","ELEMENT_SET_NO":"999","EPHEMERIS_TYPE":"0","MEAN_ELEMENT_THEORY":"SGP4","MEAN_MOTION_DDOT":"0.0000000000000","BSTAR":"0.00007898700000","REV_AT_EPOCH":"13130","REF_FRAME":"TEME","ECCENTRICITY":"0.00011350","OBJECT_ID":"2021-012B","TIME_SYSTEM":"UTC","OBJECT_TYPE":"PAYLOAD","ARG_OF_PERICENTER":"87.0733","NORAD_CAT_ID":"47621"},{"MEAN_ELEMENT_THEORY":"SGP4","BSTAR":"0.00003083700000","REV_AT_EPOCH":"13145","MEAN_MOTION_DDOT":"0.0000000000000","RCS_SIZE":"LARGE","ELEMENT_SET_NO":"999","EPHEMERIS_TYPE":"0","NORAD_CAT_ID":"47622","TIME_SYSTEM":"UTC","REF_FRAME":"TEME","ECCENTRICITY":"0.00013110","OBJECT_ID":"2021-012C","OBJECT_TYPE":"PAYLOAD","ARG_OF_PERICENTER":"78.2243","APOAPSIS":"548.136","TLE_LINE2":"2 47622  53.0535 160.1693 0001311  78.2243 281.8893 15.06395130131458","RA_OF_ASC_NODE":"160.1693","INCLINATION":"53.0535","OBJECT_NAME":"STARLINK-1645","EPOCH":"2023-07-01T15:30:00.660672","PERIAPSIS":"546.321","CENTER_NAME":"EARTH","DECAY_DATE":null,"GP_ID":"234655247","FILE":"3946971","COUNTRY_CODE":"US","MEAN_MOTION_DOT":"0.00000178","MEAN_ANOMALY":"281.8893","LAUNCH_DATE":"2021-02-16","MEAN_MOTION":"15.06395130","PERIOD":"95.592","SITE":"AFETR","CLASSIFICATION_TYPE":"U","TLE_LINE1":"1 47622U 21012C   23182.64584098  .00000178  00000-0  30837-4 0  9998","SEMIMAJOR_AXIS":"6925.363"},{"RCS_SIZE":"LARGE","ELEMENT_SET_NO":"999","EPHEMERIS_TYPE":"0","MEAN_ELEMENT_THEORY":"SGP4","BSTAR":"-0.00050081000000","REV_AT_EPOCH":"13239","MEAN_MOTION_DDOT":"0.0000000000000","TIME_SYSTEM":"UTC","REF_FRAME":"TEME","OBJECT_ID":"2021-012D","ECCENTRICITY":"0.00016930","OBJECT_TYPE":"PAYLOAD","ARG_OF_PERICENTER":"112.3410","NORAD_CAT_ID":"47623","EPOCH":"2023-07-01T18:59:01.734720","PERIAPSIS":"546.057","CENTER_NAME":"EARTH","GP_ID":"234655262","DECAY_DATE":null,"FILE":"3946960","APOAPSIS":"548.402","TLE_LINE2":"2 47623  53.0548  94.5310 0001693 112.3410 247.7758 15.06394887132391","INCLINATION":"53.0548","RA_OF_ASC_NODE":"94.5310","OBJECT_NAME":"STARLINK-1655","PERIOD":"95.592","SITE":"AFETR","CLASSIFICATION_TYPE":"U","SEMIMAJOR_AXIS":"6925.364","TLE_LINE1":"1 47623U 21012D   23182.79099230 -.00007732  00000-0 -50081-3 0  9991","COUNTRY_CODE":"US","MEAN_MOTION_DOT":"-0.00007732","MEAN_ANOMALY":"247.7758","LAUNCH_DATE":"2021-02-16","MEAN_MOTION":"15.06394887"},{"COUNTRY_CODE":"US","MEAN_MOTION_DOT":"0.00000677","MEAN_ANOMALY":"267.6215","MEAN_MOTION":"15.06405581","LAUNCH_DATE":"2021-02-16","PERIOD":"95.592","SITE":"AFETR","CLASSIFICATION_TYPE":"U","TLE_LINE1":"1 47624U 21012E   23182.05518603  .00000677  00000-0  64326-4 0  9998","SEMIMAJOR_AXIS":"6925.331","TLE_LINE2":"2 47624  53.0545 142.8363 0001180  92.4909 267.6215 15.06405581131646","APOAPSIS":"548.014","RA_OF_ASC_NODE":"142.8363","INCLINATION":"53.0545","OBJECT_NAME":"STARLINK-1669","PERIAPSIS":"546.379","EPOCH":"2023-07-01T01:19:28.072992","DECAY_DATE":null,"GP_ID":"234640989","FILE":"3946394","CENTER_NAME":"EARTH","NORAD_CAT_ID":"47624","TIME_SYSTEM":"UTC","OBJECT_ID":"2021-012E","ECCENTRICITY":"0.00011800","REF_FRAME":"TEME","ARG_OF_PERICENTER":"92.4909","OBJECT_TYPE":"PAYLOAD","MEAN_ELEMENT_THEORY":"SGP4","REV_AT_EPOCH":"13164","BSTAR":"0.00006432600000","MEAN_MOTION_DDOT":"0.0000000000000","RCS_SIZE":"LARGE","EPHEMERIS_TYPE":"0","ELEMENT_SET_NO":"999"},{"PERIOD":"95.592","SITE":"AFETR","CLASSIFICATION_TYPE":"U","SEMIMAJOR_AXIS":"6925.355","TLE_LINE1":"1 47625U 21012F   23182.65321045 -.00000182  00000-0  66636-5 0  9996","COUNTRY_CODE":"US","MEAN_MOTION_DOT":"-0.00000182","MEAN_ANOMALY":"269.8922","MEAN_MOTION":"15.06397842","LAUNCH_DATE":"2021-02-16","PERIAPSIS":"546.458","EPOCH":"2023-07-01T15:40:37.382880","FILE":"3946961","GP_ID":"234655276","DECAY_DATE":null,"CENTER_NAME":"EARTH","TLE_LINE2":"2 47625  53.0528 160.1404 0001100  90.2193 269.8922 15.06397842131458","APOAPSIS":"547.982","INCLINATION":"53.0528","RA_OF_ASC_NODE":"160.1404","OBJECT_NAME":"STARLINK-1704","TIME_SYSTEM":"UTC","OBJECT_ID":"2021-012F","ECCENTRICITY":"0.00011000","REF_FRAME":"TEME","ARG_OF_PERICENTER":"90.2193","OBJECT_TYPE":"PAYLOAD","NORAD_CAT_ID":"47625","RCS_SIZE":"LARGE","EPHEMERIS_TYPE":"0","ELEMENT_SET_NO":"999","MEAN_ELEMENT_THEORY":"SGP4","REV_AT_EPOCH":"13145","BSTAR":"0.00000666360000","MEAN_MOTION_DDOT":"0.0000000000000"}];
